{
    "NOAA 15": {
        "line1": "1 25338U 98030A   22114.46699835  .00000171  00000+0  89833-4 0  9994",
        "line2": "2 25338  98.6497 144.6949 0011598  95.3584 264.8920 14.26112627245577",
        "freq": 137.62,
        "type": "APT",
        "catalog_number": "25338"
    },
    "NOAA 18": {
        "line1": "1 28654U 05018A   22114.45063793  .00000165  00000+0  11289-3 0  9991",
        "line2": "2 28654  98.9519 184.9233 0015291 122.7691 237.4957 14.12717167872443",
        "freq": 137.9125,
        "type": "APT",
        "catalog_number": "28654"
    },
    "NOAA 19": {
        "line1": "1 33591U 09005A   22114.51657583  .00000178  00000+0  12124-3 0  9993",
        "line2": "2 33591  99.1538 147.5057 0013478 343.7565  16.3172 14.12552894680839",
        "freq": 137.1,
        "type": "APT",
        "catalog_number": "33591"
    },
    "METEOR M2": {
        "line1": "1 40069U 14037A   22114.51668945  .00000013  00000+0  25042-4 0  9998",
        "line2": "2 40069  98.4360 134.7720 0006871 112.9271 247.2648 14.20703959404203",
        "freq": 137.1,
        "type": "LRPT",
        "catalog_number": "40069"
    }
}